[{"OBJECT_NAME":"M-SEL\/CORTEZ","OBJECT_ID":"2025-052X","EPOCH":"2026-03-09T22:43:08.037984","MEAN_MOTION":15.2443435,"ECCENTRICITY":0.00063111,"INCLINATION":97.4031,"RA_OF_ASC_NODE":323.6247,"ARG_OF_PERICENTER":125.7323,"MEAN_ANOMALY":234.4503,"EPHEMERIS_TYPE":0,"CLASSIFICATION_TYPE":"U","NORAD_CAT_ID":63231,"ELEMENT_SET_NO":999,"REV_AT_EPOCH":5479,"BSTAR":0.00042924652,"MEAN_MOTION_DOT":0.00010472,"MEAN_MOTION_DDOT":0},{"OBJECT_NAME":"SL-3 R\/B","OBJECT_ID":"1982-027B","EPOCH":"2026-03-09T22:44:40.208640","MEAN_MOTION":15.28335844,"ECCENTRICITY":0.00065199,"INCLINATION":81.188,"RA_OF_ASC_NODE":37.4466,"ARG_OF_PERICENTER":276.581,"MEAN_ANOMALY":83.4683,"EPHEMERIS_TYPE":0,"CLASSIFICATION_TYPE":"U","NORAD_CAT_ID":13121,"ELEMENT_SET_NO":999,"REV_AT_EPOCH":39859,"BSTAR":0.00030526741,"MEAN_MOTION_DOT":8.453e-5,"MEAN_MOTION_DDOT":0}]
